NORAD_CAT_ID,OBJECT_NAME,OBJECT_TYPE,EPOCH,MEAN_MOTION,ECCENTRICITY,INCLINATION,RA_OF_ASC_NODE,ARG_OF_PERICENTER,MEAN_ANOMALY,BSTAR,MEAN_MOTION_DOT,MEAN_MOTION_DDOT,TLE_LINE0,TLE_LINE1,TLE_LINE2,SEMIMAJOR_AXIS,PERIOD,APOGEE,PERIGEE,DECAYED
52705.0,STARLINK-3844,PAYLOAD,2023-07-02 23:51:29,15.08838766,7.98e-05,53.2165,216.6357,72.9681,287.1398,4.488e-05,4.27e-06,0.0,0 STARLINK-3844,1 52705U 22053BB  23183.99408990  .00000427  00000-0  44880-4 0  9997,2 52705  53.2165 216.6357 0000798  72.9681 287.1398 15.08838766 62839,6917.884,95.438,540.301,539.197,0.0
52705.0,STARLINK-3844,PAYLOAD,2023-07-04 10:49:58,15.08841191,8.39e-05,53.2164,210.0938,73.2779,286.8305,6.9551e-05,8.19e-06,0.0,0 STARLINK-3844,1 52705U 22053BB  23185.45136815  .00000819  00000-0  69551-4 0  9991,2 52705  53.2164 210.0938 0000839  73.2779 286.8305 15.08841191 63054,6917.877,95.437,540.322,539.161,0.0
52705.0,STARLINK-3844,PAYLOAD,2023-07-06 00:59:13,15.08839464,8.67e-05,53.2164,202.9569,74.5218,285.587,4.7643e-05,4.71e-06,0.0,0 STARLINK-3844,1 52705U 22053BB  23187.04112990  .00000471  00000-0  47643-4 0  9998,2 52705  53.2164 202.9569 0000867  74.5218 285.5870 15.08839464 63296,6917.882,95.438,540.347,539.147,0.0
52705.0,STARLINK-3844,PAYLOAD,2023-07-07 07:11:32,15.08845346,9e-05,53.2162,197.3067,73.6475,286.4616,7.9412e-05,9.77e-06,0.0,0 STARLINK-3844,1 52705U 22053BB  23188.29968543  .00000977  00000-0  79412-4 0  9999,2 52705  53.2162 197.3067 0000900  73.6475 286.4616 15.08845346 63482,6917.864,95.437,540.352,539.106,0.0
52705.0,STARLINK-3844,PAYLOAD,2023-07-08 07:02:20,15.08840105,9.28e-05,53.2162,192.8459,74.0582,286.0512,6.5803e-05,7.6e-06,0.0,0 STARLINK-3844,1 52705U 22053BB  23189.29328876  .00000760  00000-0  65803-4 0  9998,2 52705  53.2162 192.8459 0000928  74.0582 286.0512 15.08840105 63637,6917.88,95.438,540.387,539.103,0.0
52705.0,STARLINK-3844,PAYLOAD,2023-07-10 00:22:22,15.08836311,9.92e-05,53.2165,185.1153,72.9932,287.1168,3.3772e-05,2.5e-06,0.0,0 STARLINK-3844,1 52705U 22053BB  23191.01553281  .00000250  00000-0  33772-4 0  9995,2 52705  53.2165 185.1153 0000992  72.9932 287.1168 15.08836311 63894,6917.892,95.438,540.443,539.07,0.0
52705.0,STARLINK-3844,PAYLOAD,2023-07-11 03:23:55,15.08837319,0.0001026,53.2171,180.0606,75.2361,284.8745,4.6689e-05,4.55e-06,0.0,0 STARLINK-3844,1 52705U 22053BB  23192.14161427  .00000455  00000-0  46689-4 0  9995,2 52705  53.2171 180.0606 0001026  75.2361 284.8745 15.08837319 64063,6917.889,95.438,540.463,539.044,0.0
52705.0,STARLINK-3844,PAYLOAD,2023-07-12 08:00:52,15.08838825,0.0001024,53.2169,174.7075,76.4421,283.6685,4.0173e-05,3.52e-06,0.0,0 STARLINK-3844,1 52705U 22053BB  23193.33393594  .00000352  00000-0  40173-4 0  9997,2 52705  53.2169 174.7075 0001024  76.4421 283.6685 15.08838825 64241,6917.884,95.438,540.457,539.041,0.0
52705.0,STARLINK-3844,PAYLOAD,2023-07-13 15:48:34,15.08841436,0.000112,53.2172,168.7602,80.5227,279.5891,4.0144e-05,3.51e-06,0.0,0 STARLINK-3844,1 52705U 22053BB  23194.65873451  .00000351  00000-0  40144-4 0  9995,2 52705  53.2172 168.7602 0001120  80.5227 279.5891 15.08841436 64448,6917.876,95.437,540.516,538.966,0.0
52705.0,STARLINK-3844,PAYLOAD,2023-07-15 01:11:39,15.0885318,0.0001121,53.2175,162.5139,90.789,269.3231,0.00011731,1.58e-05,0.0,0 STARLINK-3844,1 52705U 22053BB  23196.04976219  .00001580  00000-0  11731-3 0  9990,2 52705  53.2175 162.5139 0001121  90.7890 269.3231 15.08853180 64655,6917.84,95.437,540.481,538.93,0.0
52705.0,STARLINK-3844,PAYLOAD,2023-07-15 04:22:24,15.08867737,0.0001191,53.2172,161.92,93.1944,266.9185,0.00024376,3.597e-05,0.0,0 STARLINK-3844,1 52705U 22053BB  23196.18222874  .00003597  00000-0  24376-3 0  9995,2 52705  53.2172 161.9200 0001191  93.1944 266.9185 15.08867737 64674,6917.796,95.436,540.485,538.837,0.0
52705.0,STARLINK-3844,PAYLOAD,2023-07-16 04:13:14,15.0882641,0.0001166,53.2173,157.4598,85.2078,274.9047,-5.9538e-05,-1.235e-05,0.0,0 STARLINK-3844,1 52705U 22053BB  23197.17586284 -.00001235  00000-0 -59538-4 0  9991,2 52705  53.2173 157.4598 0001166  85.2078 274.9047 15.08826410 64823,6917.922,95.438,540.594,538.98,0.0
52705.0,STARLINK-3844,PAYLOAD,2023-07-16 23:17:51,15.08844338,0.0001204,53.2169,153.8914,87.1696,272.9433,-0.0001702,-2.996e-05,0.0,0 STARLINK-3844,1 52705U 22053BB  23197.97073848 -.00002996  00000-0 -17020-3 0  9990,2 52705  53.2169 153.8914 0001204  87.1696 272.9433 15.08844338 64949,6917.867,95.437,540.565,538.899,0.0
52705.0,STARLINK-3844,PAYLOAD,2023-07-18 00:44:02,15.08836584,0.0001309,53.2161,149.1342,79.7353,280.3787,0.00029276,4.374e-05,0.0,0 STARLINK-3844,1 52705U 22053BB  23199.03058084  .00004374  00000-0  29276-3 0  9990,2 52705  53.2161 149.1342 0001309  79.7353 280.3787 15.08836584 65105,6917.891,95.438,540.661,538.85,0.0
52705.0,STARLINK-3844,PAYLOAD,2023-07-18 05:30:11,15.08848433,0.0001336,53.2164,148.2424,80.738,279.3763,0.00043462,6.637e-05,0.0,0 STARLINK-3844,1 52705U 22053BB  23199.22929728  .00006637  00000-0  43462-3 0  9990,2 52705  53.2164 148.2424 0001336  80.7380 279.3763 15.08848433 65132,6917.855,95.437,540.644,538.795,0.0
52705.0,STARLINK-3844,PAYLOAD,2023-07-19 02:10:12,15.0883514,0.0001556,53.2177,144.3791,102.7732,257.3434,-4.8533e-05,-1.06e-05,0.0,0 STARLINK-3844,1 52705U 22053BB  23200.09042142 -.00001060  00000-0 -48533-4 0  9996,2 52705  53.2177 144.3791 0001556 102.7732 257.3434 15.08835140 65266,6917.895,95.438,540.837,538.684,0.0
52705.0,STARLINK-3844,PAYLOAD,2023-07-19 06:56:21,15.08842794,0.0001313,53.2168,143.4844,92.2083,267.9059,9.7751e-05,1.268e-05,0.0,0 STARLINK-3844,1 52705U 22053BB  23200.28913954  .00001268  00000-0  97751-4 0  9999,2 52705  53.2168 143.4844 0001313  92.2083 267.9059 15.08842794 65294,6917.872,95.437,540.645,538.829,0.0
52705.0,STARLINK-3844,PAYLOAD,2023-07-20 19:30:14,15.08836568,0.0001293,53.2168,136.6449,101.3033,258.8105,0.00010622,1.403e-05,0.0,0 STARLINK-3844,1 52705U 22053BB  23201.81266864  .00001403  00000-0  10622-3 0  9992,2 52705  53.2168 136.6449 0001293 101.3033 258.8105 15.08836568 65522,6917.891,95.438,540.65,538.861,0.0
52705.0,STARLINK-3844,PAYLOAD,2023-07-24 04:34:53,15.08886684,7.6e-05,53.2179,121.4791,96.6966,263.4113,-0.00072607,-0.00011839,0.0,0 STARLINK-3844,1 52705U 22053BB  23205.19089841 -.00011839  00000-0 -72607-3 0  9992,2 52705  53.2179 121.4791 0000760  96.6966 263.4113 15.08886684 66464,6917.738,95.435,540.128,539.077,0.0
52705.0,STARLINK-3844,PAYLOAD,2023-07-25 02:50:18,15.08843229,0.0001297,53.2184,117.3166,102.2572,257.8566,7.5918e-05,9.21e-06,0.0,0 STARLINK-3844,1 52705U 22053BB  23206.11826873  .00000921  00000-0  75918-4 0  9996,2 52705  53.2184 117.3166 0001297 102.2572 257.8566 15.08843229 66606,6917.871,95.437,540.633,538.838,0.0
52705.0,STARLINK-3844,PAYLOAD,2023-07-26 04:16:29,15.08836374,0.0001313,53.2197,112.5585,85.3127,274.8015,0.00013147,1.805e-05,0.0,0 STARLINK-3844,1 52705U 22053BB  23207.17811606  .00001805  00000-0  13147-3 0  9998,2 52705  53.2197 112.5585 0001313  85.3127 274.8015 15.08836374 66766,6917.891,95.438,540.665,538.848,0.0
52705.0,STARLINK-3844,PAYLOAD,2023-07-27 02:31:52,15.08847849,0.0001456,53.2198,108.3962,77.0419,283.0736,8.9001e-05,1.129e-05,0.0,0 STARLINK-3844,1 52705U 22053BB  23208.10546927  .00001129  00000-0  89001-4 0  9995,2 52705  53.2198 108.3962 0001456  77.0419 283.0736 15.08847849 66478,6917.856,95.437,540.729,538.714,0.0
52705.0,STARLINK-3844,PAYLOAD,2023-07-27 21:36:31,15.08836974,8.72e-05,53.2174,104.8275,93.2348,266.8744,-2.4215e-05,-6.73e-06,0.0,0 STARLINK-3844,1 52705U 22053BB  23208.90035883 -.00000673  00000-0 -24215-4 0  9998,2 52705  53.2174 104.8275 0000872  93.2348 266.8744 15.08836974 67029,6917.89,95.438,540.358,539.151,0.0
52705.0,STARLINK-3844,PAYLOAD,2023-07-28 02:22:40,15.08838047,8.61e-05,53.2175,103.9353,89.4457,270.6634,-1.6825e-05,-5.55e-06,0.0,0 STARLINK-3844,1 52705U 22053BB  23209.09907810 -.00000555  00000-0 -16825-4 0  9994,2 52705  53.2175 103.9353 0000861  89.4457 270.6634 15.08838047 66622,6917.886,95.438,540.347,539.156,0.0
52705.0,STARLINK-3844,PAYLOAD,2023-07-29 02:13:26,15.08854245,8.91e-05,53.2175,99.4757,83.9605,276.1489,4.2606e-05,3.91e-06,0.0,0 STARLINK-3844,1 52705U 22053BB  23210.09266727  .00000391  00000-0  42606-4 0  9993,2 52705  53.2175  99.4757 0000891  83.9605 276.1489 15.08854245 66779,6917.837,95.437,540.318,539.085,0.0
52705.0,STARLINK-3844,PAYLOAD,2023-07-29 19:42:41,15.0884112,0.0001029,53.218,96.2053,87.9949,272.1161,0.00012697,1.734e-05,0.0,0 STARLINK-3844,1 52705U 22053BB  23210.82131420  .00001734  00000-0  12697-3 0  9993,2 52705  53.2180  96.2053 0001029  87.9949 272.1161 15.08841120 66881,6917.877,95.437,540.454,539.03,0.0
52705.0,STARLINK-3844,PAYLOAD,2023-07-30 02:04:13,15.08846345,0.0001038,53.2178,95.0151,90.2777,269.8334,0.00015766,2.223e-05,0.0,0 STARLINK-3844,1 52705U 22053BB  23211.08626949  .00002223  00000-0  15766-3 0  9991,2 52705  53.2178  95.0151 0001038  90.2777 269.8334 15.08846345 66924,6917.861,95.437,540.444,539.008,0.0
52705.0,STARLINK-3844,PAYLOAD,2023-07-31 01:55:00,15.08846664,9.65e-05,53.2179,90.553,93.4794,266.6308,8.2134e-06,-1.57e-06,0.0,0 STARLINK-3844,1 52705U 22053BB  23212.07987161 -.00000157  00000-0  82134-5 0  9997,2 52705  53.2179  90.5530 0000965  93.4794 266.6308 15.08846664 67075,6917.86,95.437,540.393,539.057,0.0
52705.0,STARLINK-3844,PAYLOAD,2023-08-01 01:45:48,15.08840421,0.0001143,53.2183,86.0945,92.9547,267.1576,3.4507e-05,2.61e-06,0.0,0 STARLINK-3844,1 52705U 22053BB  23213.07347650  .00000261  00000-0  34507-4 0  9996,2 52705  53.2183  86.0945 0001143  92.9547 267.1576 15.08840421 67224,6917.879,95.438,540.535,538.953,0.0
52705.0,STARLINK-3844,PAYLOAD,2023-08-02 07:58:08,15.08841442,0.0001076,53.2179,80.4438,84.2046,275.9069,2.2617e-05,7.2e-07,0.0,0 STARLINK-3844,1 52705U 22053BB  23214.33203840  .00000072  00000-0  22617-4 0  9997,2 52705  53.2179  80.4438 0001076  84.2046 275.9069 15.08841442 67416,6917.876,95.437,540.485,538.997,0.0
